{"type": "FeatureCollection", "features": [{"type": "Feature", "properties": {"municipalityCode": "76001", "name": "CALI"}, "geometry": {"type": "MultiPolygon", "coordinates": [[[[-76.49136, 3.50601], [-76.47544, 3.45147], [-76.46075, 3.32876], [-76.49258, 3.2891], [-76.55868, 3.2829], [-76.60765, 3.31389], [-76.69579, 3.31141], [-76.70191, 3.35603], [-76.70681, 3.42792], [-76.6505, 3.46635], [-76.59541, 3.54815], [-76.59174, 3.54691], [-76.54767, 3.49981], [-76.49136, 3.50601]]]]}}, {"type": "Feature", "properties": {"municipalityCode": "76036", "name": "ANDALUC\u00cdA"}, "geometry": {"type": "MultiPolygon", "coordinates": [[[[-76.07147, 4.08856], [-76.17185, 4.11955], [-76.2453, 4.16789], [-76.24897, 4.184], [-76.23551, 4.21375], [-76.15104, 4.18276], [-76.07147, 4.08856]]]]}}, {"type": "Feature", "properties": {"municipalityCode": "76041", "name": "ANSERMANUEVO"}, "geometry": {"type": "MultiPolygon", "coordinates": [[[[-75.98945, 4.88058], [-75.91478, 4.87314], [-75.93559, 4.80745], [-75.96375, 4.80125], [-76.01639, 4.69218], [-76.08861, 4.73556], [-76.14737, 4.78514], [-76.1388, 4.84092], [-76.13758, 4.8434], [-76.07147, 4.8372], [-75.98945, 4.88058]]]]}}, {"type": "Feature", "properties": {"municipalityCode": "76054", "name": "ARGELIA"}, "geometry": {"type": "MultiPolygon", "coordinates": [[[[-76.08861, 4.73556], [-76.12289, 4.65128], [-76.19389, 4.68227], [-76.14737, 4.78514], [-76.08861, 4.73556]]]]}}, {"type": "Feature", "properties": {"municipalityCode": "76111", "name": "GUADALAJARA DE BUGA"}, "geometry": {"type": "MultiPolygon", "coordinates": [[[[-76.31263, 3.99312], [-76.22694, 3.93239], [-76.14125, 3.90388], [-76.10085, 3.95718], [-76.08371, 3.90636], [-75.99802, 3.89396], [-75.87316, 3.92619], [-75.8499, 3.889], [-75.91723, 3.74894], [-75.95518, 3.71424], [-75.99925, 3.75638], [-76.08249, 3.77002], [-76.10452, 3.81959], [-76.17797, 3.80472], [-76.27713, 3.83819], [-76.37261, 3.81216], [-76.31263, 3.99312]]]]}}, {"type": "Feature", "properties": {"municipalityCode": "76113", "name": "BUGALAGRANDE"}, "geometry": {"type": "MultiPolygon", "coordinates": [[[[-76.0372, 4.25589], [-75.95395, 4.17656], [-76.0017, 4.10219], [-76.07147, 4.08856], [-76.15104, 4.18276], [-76.23551, 4.21375], [-76.21225, 4.25961], [-76.17185, 4.31786], [-76.08371, 4.24349], [-76.0372, 4.25589]]]]}}, {"type": "Feature", "properties": {"municipalityCode": "76122", "name": "CAICEDONIA"}, "geometry": {"type": "MultiPolygon", "coordinates": [[[[-75.80338, 4.39595], [-75.79237, 4.33769], [-75.79481, 4.31042], [-75.82542, 4.21499], [-75.89275, 4.29927], [-75.8548, 4.36372], [-75.86704, 4.41082], [-75.80338, 4.39595]]]]}}, {"type": "Feature", "properties": {"municipalityCode": "76126", "name": "CALIMA"}, "geometry": {"type": "MultiPolygon", "coordinates": [[[[-76.4987, 4.06377], [-76.41546, 4.00923], [-76.42403, 3.9423], [-76.47789, 3.86546], [-76.56113, 3.8481], [-76.59296, 3.86298], [-76.71415, 3.84191], [-76.81453, 3.87537], [-76.88798, 3.99312], [-76.85983, 4.0303], [-76.6811, 3.96461], [-76.62479, 4.01543], [-76.58929, 3.99312], [-76.4987, 4.06377]]]]}}, {"type": "Feature", "properties": {"municipalityCode": "76130", "name": "CANDELARIA"}, "geometry": {"type": "MultiPolygon", "coordinates": [[[[-76.2906, 3.4713], [-76.32977, 3.3833], [-76.30039, 3.36595], [-76.34323, 3.28166], [-76.3518, 3.28662], [-76.46075, 3.32876], [-76.47544, 3.45147], [-76.37506, 3.45023], [-76.2906, 3.4713]]]]}}, {"type": "Feature", "properties": {"municipalityCode": "76147", "name": "CARTAGO"}, "geometry": {"type": "MultiPolygon", "coordinates": [[[[-75.93559, 4.80745], [-75.85602, 4.72813], [-75.85602, 4.71325], [-75.82787, 4.65995], [-75.86581, 4.61286], [-75.97232, 4.66739], [-76.01639, 4.66615], [-76.01639, 4.69218], [-75.96375, 4.80125], [-75.93559, 4.80745]]]]}}, {"type": "Feature", "properties": {"municipalityCode": "76243", "name": "EL \u00c1GUILA"}, "geometry": {"type": "MultiPolygon", "coordinates": [[[[-75.99068, 4.91281], [-75.98945, 4.88058], [-76.07147, 4.8372], [-76.13758, 4.8434], [-76.08861, 4.94627], [-76.07759, 5.04667], [-76.0274, 4.93884], [-75.99068, 4.91281]]]]}}, {"type": "Feature", "properties": {"municipalityCode": "76246", "name": "EL CAIRO"}, "geometry": {"type": "MultiPolygon", "coordinates": [[[[-76.14737, 4.78514], [-76.19389, 4.68227], [-76.29794, 4.69838], [-76.31263, 4.75044], [-76.21103, 4.82976], [-76.1388, 4.84092], [-76.14737, 4.78514]]]]}}, {"type": "Feature", "properties": {"municipalityCode": "76248", "name": "EL CERRITO"}, "geometry": {"type": "MultiPolygon", "coordinates": [[[[-75.95518, 3.71424], [-75.96007, 3.70432], [-76.00659, 3.71672], [-76.08983, 3.62128], [-76.24163, 3.62128], [-76.29304, 3.60269], [-76.36772, 3.62748], [-76.42648, 3.69441], [-76.40077, 3.74027], [-76.3971, 3.76258], [-76.3212, 3.7068], [-76.20123, 3.66218], [-76.12411, 3.68821], [-76.08249, 3.77002], [-75.99925, 3.75638], [-75.95518, 3.71424]]]]}}, {"type": "Feature", "properties": {"municipalityCode": "76250", "name": "EL DOVIO"}, "geometry": {"type": "MultiPolygon", "coordinates": [[[[-76.18532, 4.54592], [-76.16573, 4.51246], [-76.26856, 4.48147], [-76.36527, 4.49263], [-76.30039, 4.65376], [-76.28325, 4.59426], [-76.22204, 4.60294], [-76.18532, 4.54592]]]]}}, {"type": "Feature", "properties": {"municipalityCode": "76275", "name": "FLORIDA"}, "geometry": {"type": "MultiPolygon", "coordinates": [[[[-76.06168, 3.35479], [-76.03842, 3.3015], [-76.05556, 3.22341], [-76.19144, 3.22713], [-76.22939, 3.27671], [-76.34323, 3.28166], [-76.30039, 3.36595], [-76.18165, 3.35727], [-76.08861, 3.38826], [-76.06168, 3.35479]]]]}}, {"type": "Feature", "properties": {"municipalityCode": "76306", "name": "GINEBRA"}, "geometry": {"type": "MultiPolygon", "coordinates": [[[[-76.08249, 3.77002], [-76.12411, 3.68821], [-76.20123, 3.66218], [-76.3212, 3.7068], [-76.30284, 3.7601], [-76.22082, 3.76878], [-76.17797, 3.80472], [-76.10452, 3.81959], [-76.08249, 3.77002]]]]}}, {"type": "Feature", "properties": {"municipalityCode": "76318", "name": "GUACAR\u00cd"}, "geometry": {"type": "MultiPolygon", "coordinates": [[[[-76.17797, 3.80472], [-76.22082, 3.76878], [-76.30284, 3.7601], [-76.3212, 3.7068], [-76.3971, 3.76258], [-76.37261, 3.81216], [-76.27713, 3.83819], [-76.17797, 3.80472]]]]}}, {"type": "Feature", "properties": {"municipalityCode": "76020", "name": "ALCAL\u00c1"}, "geometry": {"type": "MultiPolygon", "coordinates": [[[[-75.70912, 4.67979], [-75.74095, 4.655], [-75.82787, 4.65995], [-75.85602, 4.71325], [-75.70912, 4.67979]]]]}}, {"type": "Feature", "properties": {"municipalityCode": "76497", "name": "OBANDO"}, "geometry": {"type": "MultiPolygon", "coordinates": [[[[-75.86581, 4.61286], [-75.86704, 4.57567], [-75.8805, 4.53105], [-75.96375, 4.53105], [-76.03108, 4.56947], [-76.03842, 4.58311], [-76.01639, 4.66615], [-75.97232, 4.66739], [-75.86581, 4.61286]]]]}}, {"type": "Feature", "properties": {"municipalityCode": "76520", "name": "PALMIRA"}, "geometry": {"type": "MultiPolygon", "coordinates": [[[[-75.96007, 3.70432], [-75.99313, 3.60888], [-75.98456, 3.55931], [-76.0372, 3.45271], [-76.12166, 3.47626], [-76.2906, 3.4713], [-76.37506, 3.45023], [-76.47544, 3.45147], [-76.49136, 3.50601], [-76.42648, 3.68077], [-76.42648, 3.69441], [-76.36772, 3.62748], [-76.29304, 3.60269], [-76.24163, 3.62128], [-76.08983, 3.62128], [-76.00659, 3.71672], [-75.96007, 3.70432]]]]}}, {"type": "Feature", "properties": {"municipalityCode": "76563", "name": "PRADERA"}, "geometry": {"type": "MultiPolygon", "coordinates": [[[[-76.0372, 3.45271], [-76.06168, 3.35479], [-76.08861, 3.38826], [-76.18165, 3.35727], [-76.30039, 3.36595], [-76.32977, 3.3833], [-76.2906, 3.4713], [-76.12166, 3.47626], [-76.0372, 3.45271]]]]}}, {"type": "Feature", "properties": {"municipalityCode": "76606", "name": "RESTREPO"}, "geometry": {"type": "MultiPolygon", "coordinates": [[[[-76.47789, 3.86546], [-76.4681, 3.83075], [-76.53665, 3.74894], [-76.60275, 3.75142], [-76.56113, 3.8481], [-76.47789, 3.86546]]]]}}, {"type": "Feature", "properties": {"municipalityCode": "76616", "name": "RIOFR\u00cdO"}, "geometry": {"type": "MultiPolygon", "coordinates": [[[[-76.24897, 4.184], [-76.2453, 4.16789], [-76.30284, 4.06749], [-76.41546, 4.00923], [-76.4987, 4.06377], [-76.44851, 4.16169], [-76.34813, 4.15921], [-76.3261, 4.19515], [-76.24897, 4.184]]]]}}, {"type": "Feature", "properties": {"municipalityCode": "76622", "name": "ROLDANILLO"}, "geometry": {"type": "MultiPolygon", "coordinates": [[[[-76.16573, 4.51246], [-76.06535, 4.49263], [-76.06902, 4.45544], [-76.14859, 4.3724], [-76.25632, 4.40215], [-76.26856, 4.48147], [-76.16573, 4.51246]]]]}}, {"type": "Feature", "properties": {"municipalityCode": "76670", "name": "SAN PEDRO"}, "geometry": {"type": "MultiPolygon", "coordinates": [[[[-76.10085, 3.95718], [-76.14125, 3.90388], [-76.22694, 3.93239], [-76.31263, 3.99312], [-76.30039, 4.0489], [-76.16206, 4.02287], [-76.10085, 3.95718]]]]}}, {"type": "Feature", "properties": {"municipalityCode": "76736", "name": "SEVILLA"}, "geometry": {"type": "MultiPolygon", "coordinates": [[[[-75.86704, 4.41082], [-75.8548, 4.36372], [-75.89275, 4.29927], [-75.82542, 4.21499], [-75.84011, 4.10095], [-75.75197, 4.0774], [-75.74585, 4.0427], [-75.82297, 3.90512], [-75.8548, 4.05014], [-75.90132, 4.08484], [-75.91356, 4.17532], [-75.95395, 4.17656], [-76.0372, 4.25589], [-76.02128, 4.30175], [-75.95395, 4.3253], [-75.95151, 4.3724], [-75.87806, 4.40958], [-75.86704, 4.41082]]]]}}, {"type": "Feature", "properties": {"municipalityCode": "76823", "name": "TORO"}, "geometry": {"type": "MultiPolygon", "coordinates": [[[[-76.01639, 4.69218], [-76.01639, 4.66615], [-76.03842, 4.58311], [-76.15104, 4.57567], [-76.12289, 4.65128], [-76.08861, 4.73556], [-76.01639, 4.69218]]]]}}, {"type": "Feature", "properties": {"municipalityCode": "76828", "name": "TRUJILLO"}, "geometry": {"type": "MultiPolygon", "coordinates": [[[[-76.21225, 4.25961], [-76.23551, 4.21375], [-76.24897, 4.184], [-76.3261, 4.19515], [-76.34813, 4.15921], [-76.44851, 4.16169], [-76.45463, 4.22986], [-76.40689, 4.29927], [-76.29672, 4.29431], [-76.21225, 4.25961]]]]}}, {"type": "Feature", "properties": {"municipalityCode": "76834", "name": "TULU\u00c1"}, "geometry": {"type": "MultiPolygon", "coordinates": [[[[-75.82297, 3.90512], [-75.8499, 3.889], [-75.87316, 3.92619], [-75.99802, 3.89396], [-76.08371, 3.90636], [-76.10085, 3.95718], [-76.16206, 4.02287], [-76.30039, 4.0489], [-76.30284, 4.06749], [-76.2453, 4.16789], [-76.17185, 4.11955], [-76.07147, 4.08856], [-76.0017, 4.10219], [-75.95395, 4.17656], [-75.91356, 4.17532], [-75.90132, 4.08484], [-75.8548, 4.05014], [-75.82297, 3.90512]]]]}}, {"type": "Feature", "properties": {"municipalityCode": "76845", "name": "ULLOA"}, "geometry": {"type": "MultiPolygon", "coordinates": [[[[-75.71402, 4.71325], [-75.70912, 4.67979], [-75.85602, 4.71325], [-75.85602, 4.72813], [-75.71402, 4.71325]]]]}}, {"type": "Feature", "properties": {"municipalityCode": "76863", "name": "VERSALLES"}, "geometry": {"type": "MultiPolygon", "coordinates": [[[[-76.19389, 4.68227], [-76.12289, 4.65128], [-76.15104, 4.57567], [-76.18532, 4.54592], [-76.22204, 4.60294], [-76.28325, 4.59426], [-76.30039, 4.65376], [-76.29794, 4.69838], [-76.19389, 4.68227]]]]}}, {"type": "Feature", "properties": {"municipalityCode": "76869", "name": "VIJES"}, "geometry": {"type": "MultiPolygon", "coordinates": [[[[-76.40077, 3.74027], [-76.42648, 3.69441], [-76.42648, 3.68077], [-76.50605, 3.69937], [-76.53665, 3.74894], [-76.4681, 3.83075], [-76.44484, 3.74647], [-76.40077, 3.74027]]]]}}, {"type": "Feature", "properties": {"municipalityCode": "76890", "name": "YOTOCO"}, "geometry": {"type": "MultiPolygon", "coordinates": [[[[-76.30039, 4.0489], [-76.31263, 3.99312], [-76.37261, 3.81216], [-76.3971, 3.76258], [-76.40077, 3.74027], [-76.44484, 3.74647], [-76.4681, 3.83075], [-76.47789, 3.86546], [-76.42403, 3.9423], [-76.41546, 4.00923], [-76.30284, 4.06749], [-76.30039, 4.0489]]]]}}, {"type": "Feature", "properties": {"municipalityCode": "76892", "name": "YUMBO"}, "geometry": {"type": "MultiPolygon", "coordinates": [[[[-76.42648, 3.68077], [-76.49136, 3.50601], [-76.54767, 3.49981], [-76.59174, 3.54691], [-76.50605, 3.69937], [-76.42648, 3.68077]]]]}}, {"type": "Feature", "properties": {"municipalityCode": "76895", "name": "ZARZAL"}, "geometry": {"type": "MultiPolygon", "coordinates": [[[[-75.89519, 4.4257], [-75.87806, 4.40958], [-75.95151, 4.3724], [-75.95395, 4.3253], [-76.02128, 4.30175], [-76.0372, 4.25589], [-76.08371, 4.24349], [-76.17185, 4.31786], [-76.14859, 4.3724], [-76.06902, 4.45544], [-76.03842, 4.46536], [-75.95763, 4.40215], [-75.89519, 4.4257]]]]}}, {"type": "Feature", "properties": {"municipalityCode": "76403", "name": "LA VICTORIA"}, "geometry": {"type": "MultiPolygon", "coordinates": [[[[-75.8805, 4.53105], [-75.86949, 4.4542], [-75.89519, 4.4257], [-75.95763, 4.40215], [-76.03842, 4.46536], [-76.06902, 4.45544], [-76.06535, 4.49263], [-76.03108, 4.56947], [-75.96375, 4.53105], [-75.8805, 4.53105]]]]}}, {"type": "Feature", "properties": {"municipalityCode": "76400", "name": "LA UNI\u00d3N"}, "geometry": {"type": "MultiPolygon", "coordinates": [[[[-76.03842, 4.58311], [-76.03108, 4.56947], [-76.06535, 4.49263], [-76.16573, 4.51246], [-76.18532, 4.54592], [-76.15104, 4.57567], [-76.03842, 4.58311]]]]}}, {"type": "Feature", "properties": {"municipalityCode": "76377", "name": "LA CUMBRE"}, "geometry": {"type": "MultiPolygon", "coordinates": [[[[-76.56113, 3.8481], [-76.60275, 3.75142], [-76.53665, 3.74894], [-76.50605, 3.69937], [-76.59174, 3.54691], [-76.59541, 3.54815], [-76.64927, 3.63243], [-76.64437, 3.78489], [-76.59296, 3.86298], [-76.56113, 3.8481]]]]}}, {"type": "Feature", "properties": {"municipalityCode": "76364", "name": "JAMUND\u00cd"}, "geometry": {"type": "MultiPolygon", "coordinates": [[[[-76.49258, 3.2891], [-76.46075, 3.25935], [-76.5036, 3.14408], [-76.55746, 3.10194], [-76.67743, 3.09946], [-76.74965, 3.14656], [-76.7827, 3.23085], [-76.70191, 3.35603], [-76.69579, 3.31141], [-76.60765, 3.31389], [-76.55868, 3.2829], [-76.49258, 3.2891]]]]}}, {"type": "Feature", "properties": {"municipalityCode": "76100", "name": "BOL\u00cdVAR"}, "geometry": {"type": "MultiPolygon", "coordinates": [[[[-76.26856, 4.48147], [-76.25632, 4.40215], [-76.14859, 4.3724], [-76.17185, 4.31786], [-76.21225, 4.25961], [-76.29672, 4.29431], [-76.40689, 4.29927], [-76.45463, 4.22986], [-76.48768, 4.23606], [-76.54889, 4.33769], [-76.5391, 4.39595], [-76.48156, 4.41454], [-76.36527, 4.49263], [-76.26856, 4.48147]]]]}}, {"type": "Feature", "properties": {"municipalityCode": "76233", "name": "DAGUA"}, "geometry": {"type": "MultiPolygon", "coordinates": [[[[-76.59296, 3.86298], [-76.64437, 3.78489], [-76.64927, 3.63243], [-76.59541, 3.54815], [-76.6505, 3.46635], [-76.70681, 3.42792], [-76.74843, 3.43412], [-76.85493, 3.56426], [-76.79372, 3.66466], [-76.82188, 3.70556], [-76.77536, 3.76258], [-76.81453, 3.87537], [-76.71415, 3.84191], [-76.59296, 3.86298]]]]}}, {"type": "Feature", "properties": {"municipalityCode": "76109", "name": "BUENAVENTURA"}, "geometry": {"type": "MultiPolygon", "coordinates": [[[[-76.85983, 4.0303], [-76.88798, 3.99312], [-76.81453, 3.87537], [-76.77536, 3.76258], [-76.82188, 3.70556], [-76.79372, 3.66466], [-76.85493, 3.56426], [-76.74843, 3.43412], [-76.70681, 3.42792], [-76.70191, 3.35603], [-76.7827, 3.23085], [-76.78882, 3.21845], [-76.90879, 3.2011], [-76.93817, 3.11434], [-76.99815, 3.15524], [-77.10098, 3.18499], [-77.1781, 3.15648], [-77.23442, 3.10814], [-77.31643, 3.17383], [-77.34704, 3.14037], [-77.43028, 3.2544], [-77.49761, 3.21597], [-77.55025, 3.23085], [-77.48047, 3.32257], [-77.33724, 3.44775], [-77.36662, 3.4837], [-77.30052, 3.57046], [-77.2283, 3.58286], [-77.18423, 3.65475], [-77.19769, 3.74647], [-77.18055, 3.83199], [-77.28338, 3.84191], [-77.31766, 3.94974], [-77.21238, 4.00923], [-77.24298, 4.0836], [-77.31399, 4.02907], [-77.35928, 3.92619], [-77.44987, 4.03898], [-77.35316, 4.19763], [-77.30664, 4.16541], [-77.15852, 4.18276], [-77.04957, 4.09476], [-76.99448, 4.12079], [-76.91491, 4.096], [-76.85983, 4.0303]]]]}}]}